{
  "norad_id": 59877,
  "name": "STARLINK-31934",
  "history": [
    {
      "epoch": "2026-03-28T16:20:41.648640",
      "apogee_km": 483.5628738244068,
      "perigee_km": 482.49802063659627,
      "latitude_deg": -1.4760653967111446,
      "longitude_deg": -126.92039040010422,
      "semi_major_axis_km": 6861.167447230501,
      "eccentricity": 7.76e-05,
      "inclination_deg": 43.0028,
      "raan_deg": 167.0228,
      "arg_perigee_deg": 299.2508,
      "mean_anomaly_deg": 60.8266,
      "mean_motion_rev_day": 15.27586228
    }
  ]
}